[{"OBJECT_NAME":"KUIPER-00025","OBJECT_ID":"2025-088R","EPOCH":"2026-03-09T06:58:33.870720","MEAN_MOTION":14.83523412,"ECCENTRICITY":4.92e-5,"INCLINATION":51.9016,"RA_OF_ASC_NODE":103.1273,"ARG_OF_PERICENTER":19.3968,"MEAN_ANOMALY":340.7015,"EPHEMERIS_TYPE":0,"CLASSIFICATION_TYPE":"U","NORAD_CAT_ID":63739,"ELEMENT_SET_NO":999,"REV_AT_EPOCH":4774,"BSTAR":0.00061010528,"MEAN_MOTION_DOT":4.845e-5,"MEAN_MOTION_DDOT":0},{"OBJECT_NAME":"FENGYUN 1C DEB","OBJECT_ID":"1999-025BBY","EPOCH":"2026-03-09T10:51:20.218176","MEAN_MOTION":14.51199407,"ECCENTRICITY":0.01816545,"INCLINATION":98.2261,"RA_OF_ASC_NODE":61.7772,"ARG_OF_PERICENTER":45.8696,"MEAN_ANOMALY":105.8813,"EPHEMERIS_TYPE":0,"CLASSIFICATION_TYPE":"U","NORAD_CAT_ID":30982,"ELEMENT_SET_NO":999,"REV_AT_EPOCH":72311,"BSTAR":0.00044900596,"MEAN_MOTION_DOT":2.158e-5,"MEAN_MOTION_DDOT":0}]
